0 COSMOS 2251 DEB
1 37313U 93036BKD 13282.55061380  .00013049  00000-0  33140-2 0  3075
2 37313 074.0368 120.2902 0018772 152.0458 238.6075 14.50685473605413
0 COSMOS 2251 DEB
1 37313U 93036BKD 13286.98763280  .00012732  00000-0  32269-2 0  3095
2 37313 074.0314 111.9463 0019005 141.4759 012.7690 14.50785324606050
0 COSMOS 2251 DEB
1 37313U 93036BKD 13287.95262904  .00024415  00000-0  61664-2 0  3104
2 37313 074.0342 110.1319 0018838 139.0175 013.2547 14.50818526606193
0 COSMOS 2251 DEB
1 37313U 93036BKD 13290.88842318  .00016935  00000-0  42653-2 0  3119
2 37313 074.0292 104.6162 0026391 102.9804 256.9862 14.50925680606626
0 COSMOS 2251 DEB
1 37313U 93036BKD 13290.91779795  .00018052  00000-0  45557-2 0  3120
2 37313 074.0326 104.5556 0018622 132.9432 020.5582 14.50924519606622
0 COSMOS 2251 DEB
1 37313U 93036BKD 13291.95267308  .00016867  00000-0  42554-2 0  3134
2 37313 074.0313 102.6097 0018093 134.0741 022.7962 14.50955784606775
0 COSMOS 2251 DEB
1 37313U 93036BKD 13292.91706356  .00017874  00000-0  45053-2 0  3149
2 37313 074.0358 100.7972 0017997 130.1061 022.2188 14.50989525606910
0 COSMOS 2251 DEB
1 37313U 93036BKD 13294.91707255  .00021564  00000-0  54238-2 0  3157
2 37313 074.0360 097.0353 0017661 125.9276 029.5846 14.51054140607203
